[Satellite]
VERSION=1.1
NAME=G-SAT
NICKNAME=G-SAT
TLE1=1 45597U 98067RK  20144.75465740  .00004561  00000-0  86843-4 0  9998
TLE2=2 45597  51.6418 109.2381 0005168 337.9351  22.1415 15.50335352  4036
STATUS=0
